     2.10           G: GLONASS NAV DATA                     RINEX VERSION / TYPE
teqc  2015Jun23                         20220621 01:25:43UTCPGM / RUN BY / DATE
Linux 2.4.21-27.ELsmp|Opteron|gcc -static|Linux x86_64|=+   COMMENT
  2022     6    10   -9.313225746155D-10                    CORR TO SYSTEM TIME
                                                            END OF HEADER
20 22  6 11  2 45  0.0-7.239636033773D-05-9.094947017729D-13 9.000000000000D+03
    5.806627929688D+03-4.061927795410D-01-1.862645149231D-09 0.000000000000D+00
    2.258869482422D+04-1.371309280396D+00 3.725290298462D-09 2.000000000000D+00
    1.028051660156D+04 3.245958328247D+00 0.000000000000D+00 0.000000000000D+00
 5 22  6 11  2 45  0.0 9.441748261452D-05 9.094947017729D-13 9.510000000000D+03
   -1.724950244141D+04-2.372901916504D+00 9.313225746155D-10 0.000000000000D+00
    7.369315917969D+03 2.703285217285D-02 9.313225746155D-10 1.000000000000D+00
   -1.728167919922D+04 2.375928878784D+00 2.793967723846D-09 0.000000000000D+00
10 22  6 11  2 45  0.0-8.321274071932D-05-0.000000000000D+00 1.053000000000D+04
    6.145739257812D+03-1.546514511108D+00-9.313225746155D-10 0.000000000000D+00
    1.058110009766D+04 2.646148681641D+00 2.793967723846D-09-7.000000000000D+00
    2.238619482422D+04-8.195085525513D-01-9.313225746155D-10 0.000000000000D+00
10 22  6 11  3 15  0.0-8.321367204189D-05-0.000000000000D+00 1.080000000000D+04
    3.825275878906D+03-1.022967338562D+00-9.313225746155D-10 0.000000000000D+00
    1.530142236328D+04 2.549288749695D+00 3.725290298462D-09-7.000000000000D+00
    2.006560253906D+04-1.742032051086D+00-0.000000000000D+00 0.000000000000D+00
 5 22  6 11  3 15  0.0 9.441934525967D-05 9.094947017729D-13 1.080000000000D+04
   -2.092539013672D+04-1.678358078003D+00 1.862645149231D-09 0.000000000000D+00
    7.702587890625D+03 3.109369277954D-01 9.313225746155D-10 1.000000000000D+00
   -1.239206494141D+04 3.021643638611D+00 1.862645149231D-09 0.000000000000D+00
 9 22  6 11  3 15  0.0 5.986075848341D-05 1.818989403546D-12 1.080000000000D+04
   -5.832931152344D+03-3.346948623657D-01-0.000000000000D+00 0.000000000000D+00
    2.351166992188D+04 1.029502868652D+00 4.656612873077D-09-2.000000000000D+00
    7.885379882812D+03-3.332123756409D+00 9.313225746155D-10 0.000000000000D+00
20 22  6 11  3 15  0.0-7.239822298288D-05-9.094947017729D-13 1.080000000000D+04
    4.538299804688D+03-1.019141197205D+00-9.313225746155D-10 0.000000000000D+00
    1.960419238281D+04-1.901001930237D+00 4.656612873077D-09 2.000000000000D+00
    1.564925390625D+04 2.680529594421D+00-0.000000000000D+00 0.000000000000D+00
21 22  6 11  3 15  0.0-3.084558993578D-04-2.728484105319D-12 1.080000000000D+04
    1.568699951172D+04 4.489459991455D-01-9.313225746155D-10 0.000000000000D+00
    1.986943115234D+04 2.278261184692D-01 2.793967723846D-09 4.000000000000D+00
   -3.248895019531D+03 3.567537307739D+00 9.313225746155D-10 0.000000000000D+00
 6 22  6 11  3 15  0.0-5.323346704245D-05-1.818989403546D-12 1.089000000000D+04
   -1.438929687500D+03-3.101100921631D+00 0.000000000000D+00 0.000000000000D+00
    1.124823144531D+04 4.013919830322D-01 0.000000000000D+00-4.000000000000D+00
   -2.285538037109D+04 3.911590576172D-01 2.793967723846D-09 0.000000000000D+00
 6 22  6 11  3 45  0.0-5.323719233274D-05-1.818989403546D-12 1.260000000000D+04
   -6.794573242188D+03-2.802582740784D+00 9.313225746155D-10 0.000000000000D+00
    1.233604833984D+04 7.881040573120D-01 0.000000000000D+00-4.000000000000D+00
   -2.127767822266D+04 1.350435256958D+00 2.793967723846D-09 0.000000000000D+00
10 22  6 11  3 45  0.0-8.321367204189D-05-0.000000000000D+00 1.260000000000D+04
    2.461768066406D+03-5.014219284058D-01-0.000000000000D+00 0.000000000000D+00
    1.958273291016D+04 2.160960197449D+00 4.656612873077D-09-7.000000000000D+00
    1.619630322266D+04-2.529209136963D+00 0.000000000000D+00 0.000000000000D+00
 5 22  6 11  3 45  0.0 9.442027658224D-05 9.094947017729D-13 1.260000000000D+04
   -2.320294335938D+04-8.367986679077D-01 1.862645149231D-09 0.000000000000D+00
    8.354975585938D+03 3.733634948730D-01 9.313225746155D-10 1.000000000000D+00
   -6.544435058594D+03 3.433516502380D+00 9.313225746155D-10 0.000000000000D+00
 9 22  6 11  3 45  0.0 5.986355245113D-05 1.818989403546D-12 1.260000000000D+04
   -6.069384765625D+03 3.888607025146D-02 0.000000000000D+00 0.000000000000D+00
    2.467907031250D+04 2.444601058960D-01 3.725290298462D-09-2.000000000000D+00
    1.659250488281D+03-3.540706634521D+00 1.862645149231D-09 0.000000000000D+00
20 22  6 11  3 45  0.0-7.240008562803D-05-0.000000000000D+00 1.260000000000D+04
    2.113229980469D+03-1.672523498535D+00-0.000000000000D+00 0.000000000000D+00
    1.591594091797D+04-2.147517204285D+00 4.656612873077D-09 2.000000000000D+00
    1.980573974609D+04 1.907833099365D+00-0.000000000000D+00 0.000000000000D+00
21 22  6 11  3 45  0.0-3.084614872932D-04-2.728484105319D-12 1.260000000000D+04
    1.600961181641D+04-1.236543655396D-01-9.313225746155D-10 0.000000000000D+00
    1.961325048828D+04-4.859361648560D-01 3.725290298462D-09 4.000000000000D+00
    3.215240722656D+03 3.568264961243D+00 9.313225746155D-10 0.000000000000D+00
 6 22  6 11  4 15  0.0-5.323998630047D-05-1.818989403546D-12 1.440000000000D+04
   -1.137708544922D+04-2.253414154053D+00 1.862645149231D-09 0.000000000000D+00
    1.398913916016D+04 1.015292167664D+00 0.000000000000D+00-4.000000000000D+00
   -1.805664794922D+04 2.205259323120D+00 2.793967723846D-09 0.000000000000D+00
21 22  6 11  4 15  0.0-3.084661439061D-04-2.728484105319D-12 1.440000000000D+04
    1.514844970703D+04-8.509092330933D-01-0.000000000000D+00 0.000000000000D+00
    1.824125976562D+04-9.989194869995D-01 4.656612873077D-09 4.000000000000D+00
    9.431092285156D+03 3.293428421021D+00 0.000000000000D+00 0.000000000000D+00
 5 22  6 11  4 15  0.0 9.442213922739D-05 9.094947017729D-13 1.440000000000D+04
   -2.391751220703D+04 3.857231140137D-02 1.862645149231D-09 0.000000000000D+00
    8.896303710938D+03 1.866807937622D-01 0.000000000000D+00 1.000000000000D+00
   -1.910820312500D+02 3.579954147339D+00 0.000000000000D+00 0.000000000000D+00
 9 22  6 11  4 15  0.0 5.986634641886D-05 1.818989403546D-12 1.440000000000D+04
   -5.826223632812D+03 1.917438507080D-01 9.313225746155D-10 0.000000000000D+00
    2.434034863281D+04-6.256914138794D-01 3.725290298462D-09-2.000000000000D+00
   -4.695720703125D+03-3.474283218384D+00 1.862645149231D-09 0.000000000000D+00
20 22  6 11  4 15  0.0-7.240101695061D-05-0.000000000000D+00 1.440000000000D+04
   -1.437459960938D+03-2.250641822815D+00 0.000000000000D+00 0.000000000000D+00
    1.205016357422D+04-2.100584983826D+00 3.725290298462D-09 2.000000000000D+00
    2.242895800781D+04 9.880208969116D-01-9.313225746155D-10 0.000000000000D+00
10 22  6 11  4 15  0.0-8.321367204189D-05 0.000000000000D+00 1.446000000000D+04
    1.956341308594D+03-8.549594879150D-02 9.313225746155D-10 0.000000000000D+00
    2.292792285156D+04 1.519051551819D+00 4.656612873077D-09-7.000000000000D+00
    1.107812402344D+04-3.120770454407D+00 9.313225746155D-10 0.000000000000D+00
 6 22  6 11  4 45  0.0-5.324371159077D-05-1.818989403546D-12 1.620000000000D+04
   -1.480667382812D+04-1.538044929504D+00 1.862645149231D-09 0.000000000000D+00
    1.585328906250D+04 1.014126777649D+00 0.000000000000D+00-4.000000000000D+00
   -1.344121728516D+04 2.889737129211D+00 1.862645149231D-09 0.000000000000D+00
10 22  6 11  4 45  0.0-8.321367204189D-05 0.000000000000D+00 1.620000000000D+04
    2.040749511719D+03 1.429147720337D-01 1.862645149231D-09 0.000000000000D+00
    2.494509130859D+04 7.010259628296D-01 4.656612873077D-09-7.000000000000D+00
    5.106356933594D+03-3.471573829651D+00 9.313225746155D-10 0.000000000000D+00
 5 22  6 11  4 45  0.0 9.442307054996D-05 9.094947017729D-13 1.620000000000D+04
   -2.311396923828D+04 8.313245773315D-01 1.862645149231D-09 0.000000000000D+00
    8.887342773438D+03-2.313547134399D-01 0.000000000000D+00 1.000000000000D+00
    6.177068359375D+03 3.449892997742D+00-0.000000000000D+00 0.000000000000D+00
 9 22  6 11  4 45  0.0 5.986914038658D-05 1.818989403546D-12 1.620000000000D+04
   -5.522558593750D+03 1.070203781128D-01 1.862645149231D-09 0.000000000000D+00
    2.244401660156D+04-1.466894149780D+00 1.862645149231D-09-2.000000000000D+00
   -1.068570263672D+04-3.137804031372D+00 2.793967723846D-09 0.000000000000D+00
21 22  6 11  4 45  0.0-3.084717318416D-04-2.728484105319D-12 1.620000000000D+04
    1.291609814453D+04-1.628138542175D+00 0.000000000000D+00 0.000000000000D+00
    1.617335595703D+04-1.253070831299D+00 4.656612873077D-09 4.000000000000D+00
    1.491847802734D+04 2.764077186584D+00 0.000000000000D+00 0.000000000000D+00
 7 22  6 11  4 45  0.0 3.626663237810D-05 0.000000000000D+00 1.647000000000D+04
    8.732275390625D+02-2.727120399475D+00 0.000000000000D+00 0.000000000000D+00
    1.168595751953D+04 1.491709709167D+00 0.000000000000D+00 5.000000000000D+00
   -2.261924121094D+04 6.600322723389D-01 2.793967723846D-09 0.000000000000D+00
11 22  6 11  4 45  0.0 3.656651824713D-05-9.094947017729D-13 1.689000000000D+04
    9.144733398438D+03 4.403495788574D-02 0.000000000000D+00 0.000000000000D+00
    1.327686621094D+04 2.706506729126D+00 4.656612873077D-09 0.000000000000D+00
    1.977411035156D+04-1.840085029602D+00-0.000000000000D+00 0.000000000000D+00
 6 22  6 11  5 15  0.0-5.324743688107D-05-1.818989403546D-12 1.800000000000D+04
   -1.687869238281D+04-7.639379501343D-01 1.862645149231D-09 0.000000000000D+00
    1.748425976562D+04 7.549238204956D-01 0.000000000000D+00-4.000000000000D+00
   -7.787822753906D+03 3.351078033447D+00 1.862645149231D-09 0.000000000000D+00
10 22  6 11  5 15  0.0-8.321367204189D-05 0.000000000000D+00 1.800000000000D+04
    2.329564453125D+03 1.373472213745D-01 1.862645149231D-09 0.000000000000D+00
    2.540861718750D+04-1.883020401001D-01 2.793967723846D-09-7.000000000000D+00
   -1.258669433594D+03-3.554942131042D+00 1.862645149231D-09 0.000000000000D+00
